NORAD_CAT_ID,OBJECT_NAME,OBJECT_TYPE,EPOCH,MEAN_MOTION,ECCENTRICITY,INCLINATION,RA_OF_ASC_NODE,ARG_OF_PERICENTER,MEAN_ANOMALY,BSTAR,MEAN_MOTION_DOT,MEAN_MOTION_DDOT,TLE_LINE0,TLE_LINE1,TLE_LINE2,SEMIMAJOR_AXIS,PERIOD,APOGEE,PERIGEE,DECAYED
52556.0,STARLINK-3763,PAYLOAD,2023-07-27 21:48:30,15.16593953,0.0001749,53.22,94.213,80.0707,280.0486,-0.00038002,-7.815e-05,0.0,0 STARLINK-3763,1 52556U 22051Z   23208.90869077 -.00007815  00000-0 -38002-3 0  9993,2 52556  53.2200  94.2130 0001749  80.0707 280.0486 15.16593953 67232,6894.281,94.95,517.352,514.94,0.0
52556.0,STARLINK-3763,PAYLOAD,2023-07-28 02:33:12,15.16586323,0.0001713,53.2184,93.3152,107.9877,252.1305,-0.00038251,-7.863e-05,0.0,0 STARLINK-3763,1 52556U 22051Z   23209.10639761 -.00007863  00000-0 -38251-3 0  9990,2 52556  53.2184  93.3152 0001713 107.9877 252.1305 15.16586323 67339,6894.304,94.95,517.35,514.988,0.0
52556.0,STARLINK-3763,PAYLOAD,2023-07-28 16:47:20,15.16545354,0.0001576,53.2186,90.6194,88.7353,271.3823,-0.00043873,-8.961e-05,0.0,0 STARLINK-3763,1 52556U 22051Z   23209.69954714 -.00008961  00000-0 -43873-3 0  9998,2 52556  53.2186  90.6194 0001576  88.7353 271.3823 15.16545354 67426,6894.428,94.953,517.38,515.206,0.0
52556.0,STARLINK-3763,PAYLOAD,2023-07-29 02:16:47,15.16513182,0.0001788,53.2181,88.8255,108.2812,251.8378,-0.00045399,-9.253e-05,0.0,0 STARLINK-3763,1 52556U 22051Z   23210.09498902 -.00009253  00000-0 -45399-3 0  9996,2 52556  53.2181  88.8255 0001788 108.2812 251.8378 15.16513182 67489,6894.525,94.955,517.623,515.158,0.0
52556.0,STARLINK-3763,PAYLOAD,2023-07-29 19:40:45,15.16474713,0.0001424,53.218,85.5256,104.71,255.4053,-0.0003642,-7.478e-05,0.0,0 STARLINK-3763,1 52556U 22051Z   23210.81996782 -.00007478  00000-0 -36420-3 0  9997,2 52556  53.2180  85.5256 0001424 104.7100 255.4053 15.16474713 67599,6894.642,94.957,517.489,515.525,0.0
52556.0,STARLINK-3763,PAYLOAD,2023-07-30 02:00:24,15.1644259,0.0001599,53.2174,84.3329,102.3952,257.7223,-0.00042246,-8.616e-05,0.0,0 STARLINK-3763,1 52556U 22051Z   23211.08361677 -.00008616  00000-0 -42246-3 0  9994,2 52556  53.2174  84.3329 0001599 102.3952 257.7223 15.16442590 67639,6894.739,94.959,517.707,515.502,0.0
52556.0,STARLINK-3763,PAYLOAD,2023-07-31 01:44:05,15.16382244,0.0001556,53.2176,79.844,104.4343,255.6825,-0.00046358,-9.407e-05,0.0,0 STARLINK-3763,1 52556U 22051Z   23212.07228225 -.00009407  00000-0 -46358-3 0  9992,2 52556  53.2176  79.8440 0001556 104.4343 255.6825 15.16382244 67784,6894.922,94.963,517.86,515.715,0.0
52556.0,STARLINK-3763,PAYLOAD,2023-07-31 08:03:45,15.16363209,0.0001501,53.2173,78.6453,101.3629,258.7535,-0.0004757,-9.64e-05,0.0,0 STARLINK-3763,1 52556U 22051Z   23212.33593803 -.00009640  00000-0 -47570-3 0  9994,2 52556  53.2173  78.6453 0001501 101.3629 258.7535 15.16363209 67822,6894.98,94.964,517.88,515.81,0.0
52556.0,STARLINK-3763,PAYLOAD,2023-07-31 23:52:55,15.1631506,0.0001475,53.2173,75.653,97.7224,262.3939,-0.00045103,-9.144e-05,0.0,0 STARLINK-3763,1 52556U 22051Z   23212.99508198 -.00009144  00000-0 -45103-3 0  9998,2 52556  53.2173  75.6530 0001475  97.7224 262.3939 15.16315060 67926,6895.126,94.967,518.008,515.974,0.0
52556.0,STARLINK-3763,PAYLOAD,2023-08-01 18:51:56,15.16276611,0.0001546,53.2176,72.0578,84.5525,275.5646,-0.00036487,-7.45e-05,0.0,0 STARLINK-3763,1 52556U 22051Z   23213.78606737 -.00007450  00000-0 -36487-3 0  9997,2 52556  53.2176  72.0578 0001546  84.5525 275.5646 15.16276611 68042,6895.243,94.969,518.174,516.042,0.0
52556.0,STARLINK-3763,PAYLOAD,2023-08-01 23:36:42,15.1625705,0.0001277,53.2165,71.1637,100.7835,259.3305,-0.00045229,-9.154e-05,0.0,0 STARLINK-3763,1 52556U 22051Z   23213.98382763 -.00009154  00000-0 -45229-3 0  9996,2 52556  53.2165  71.1637 0001277 100.7835 259.3305 15.16257050 68073,6895.302,94.971,518.047,516.286,0.0
52556.0,STARLINK-3763,PAYLOAD,2023-08-02 07:31:19,15.16234871,0.0001348,53.2167,69.6657,97.6117,262.5031,-0.00044408,-8.988e-05,0.0,0 STARLINK-3763,1 52556U 22051Z   23214.31342130 -.00008988  00000-0 -44408-3 0  9990,2 52556  53.2167  69.6657 0001348  97.6117 262.5031 15.16234871 68129,6895.369,94.972,518.164,516.305,0.0
52556.0,STARLINK-3763,PAYLOAD,2023-08-02 18:35:46,15.16263065,0.0001148,53.2165,67.5712,87.1543,272.9584,-0.00090654,-0.00018017,0.0,0 STARLINK-3763,1 52556U 22051Z   23214.77483824 -.00018017  00000-0 -90654-3 0  9994,2 52556  53.2165  67.5712 0001148  87.1543 272.9584 15.16263065 68193,6895.284,94.97,517.94,516.357,0.0
52556.0,STARLINK-3763,PAYLOAD,2023-08-03 00:55:29,15.16188765,0.0001401,53.2169,66.3744,89.2568,270.8588,-0.00041036,-8.319e-05,0.0,0 STARLINK-3763,1 52556U 22051Z   23215.03853917 -.00008319  00000-0 -41036-3 0  9992,2 52556  53.2169  66.3744 0001401  89.2568 270.8588 15.16188765 68230,6895.509,94.975,518.34,516.408,0.0
52556.0,STARLINK-3763,PAYLOAD,2023-08-03 18:19:41,15.16151078,0.0001311,53.2167,63.0802,105.2978,254.8162,-0.00032652,-6.677e-05,0.0,0 STARLINK-3763,1 52556U 22051Z   23215.76367153 -.00006677  00000-0 -32652-3 0  9993,2 52556  53.2167  63.0802 0001311 105.2978 254.8162 15.16151078 68340,6895.623,94.977,518.392,516.584,0.0
52556.0,STARLINK-3763,PAYLOAD,2023-08-03 21:29:33,15.16131389,0.0001293,53.2161,62.4852,91.5622,268.5521,-0.00042878,-8.664e-05,0.0,0 STARLINK-3763,1 52556U 22051Z   23215.89552913 -.00008664  00000-0 -42878-3 0  9996,2 52556  53.2161  62.4852 0001293  91.5622 268.5521 15.16131389 68360,6895.683,94.979,518.44,516.656,0.0
52556.0,STARLINK-3763,PAYLOAD,2023-08-04 13:18:51,15.16100489,0.0001253,53.2171,59.4897,112.0904,248.0224,-0.00037704,-7.651e-05,0.0,0 STARLINK-3763,1 52556U 22051Z   23216.55476330 -.00007651  00000-0 -37704-3 0  9995,2 52556  53.2171  59.4897 0001253 112.0904 248.0224 15.16100489 68465,6895.777,94.981,518.506,516.778,0.0
52556.0,STARLINK-3763,PAYLOAD,2023-08-04 21:13:32,15.16069961,0.0001303,53.2166,57.9965,90.1464,269.9681,-0.00039644,-8.021e-05,0.0,0 STARLINK-3763,1 52556U 22051Z   23216.88439896 -.00008021  00000-0 -39644-3 0  9994,2 52556  53.2166  57.9965 0001303  90.1464 269.9681 15.16069961 68515,6895.869,94.982,518.633,516.836,0.0
52556.0,STARLINK-3763,PAYLOAD,2023-08-05 17:47:40,15.16024925,0.0001586,53.2177,54.1027,80.9707,279.1468,-0.00027393,-5.633e-05,0.0,0 STARLINK-3763,1 52556U 22051Z   23217.74144442 -.00005633  00000-0 -27393-3 0  9994,2 52556  53.2177  54.1027 0001586  80.9707 279.1468 15.16024925 68646,6896.006,94.985,518.964,516.777,0.0
52556.0,STARLINK-3763,PAYLOAD,2023-08-05 20:57:34,15.16006939,0.0001711,53.2172,53.5074,67.9752,292.1425,-0.00038323,-7.751e-05,0.0,0 STARLINK-3763,1 52556U 22051Z   23217.87331233 -.00007751  00000-0 -38323-3 0  9992,2 52556  53.2172  53.5074 0001711  67.9752 292.1425 15.16006939 68666,6896.06,94.986,519.105,516.745,0.0
52556.0,STARLINK-3763,PAYLOAD,2023-08-06 06:27:12,15.15978427,0.0001512,53.2182,51.7072,104.255,255.8613,-0.00041168,-8.296e-05,0.0,0 STARLINK-3763,1 52556U 22051Z   23218.26889342 -.00008296  00000-0 -41168-3 0  9991,2 52556  53.2182  51.7072 0001512 104.2550 255.8613 15.15978427 68726,6896.147,94.988,519.054,516.969,0.0
52556.0,STARLINK-3763,PAYLOAD,2023-08-06 19:06:42,15.15959631,0.0001547,53.218,49.3161,100.4796,259.6374,-0.00036593,-7.406e-05,0.0,0 STARLINK-3763,1 52556U 22051Z   23218.79632755 -.00007406  00000-0 -36593-3 0  9991,2 52556  53.2180  49.3161 0001547 100.4796 259.6374 15.15959631 68805,6896.204,94.989,519.136,517.002,0.0
52556.0,STARLINK-3763,PAYLOAD,2023-08-07 17:15:55,15.1589861,0.0001469,53.2182,45.1224,93.7093,266.407,-0.00032631,-6.627e-05,0.0,0 STARLINK-3763,1 52556U 22051Z   23219.71938796 -.00006627  00000-0 -32631-3 0  9991,2 52556  53.2182  45.1224 0001469  93.7093 266.4070 15.15898610 68941,6896.389,94.993,519.267,517.241,0.0
52556.0,STARLINK-3763,PAYLOAD,2023-08-08 05:55:30,15.15853815,0.0001636,53.219,42.7312,100.3372,259.7808,-0.00036874,-7.439e-05,0.0,0 STARLINK-3763,1 52556U 22051Z   23220.24687854 -.00007439  00000-0 -36874-3 0  9992,2 52556  53.2190  42.7312 0001636 100.3372 259.7808 15.15853815 69024,6896.525,94.996,519.518,517.261,0.0
52556.0,STARLINK-3763,PAYLOAD,2023-08-08 18:35:04,15.15837922,0.0001882,53.2198,40.3395,94.9029,265.2181,-0.00035084,-7.09e-05,0.0,0 STARLINK-3763,1 52556U 22051Z   23220.77435719 -.00007090  00000-0 -35084-3 0  9996,2 52556  53.2198  40.3395 0001882  94.9029 265.2181 15.15837922 69103,6896.573,94.997,519.736,517.14,0.0
52556.0,STARLINK-3763,PAYLOAD,2023-08-08 20:10:01,15.15822353,0.0001098,53.2177,40.0418,82.0765,278.0355,-0.00036648,-7.388e-05,0.0,0 STARLINK-3763,1 52556U 22051Z   23220.84029993 -.00007388  00000-0 -36648-3 0  9994,2 52556  53.2177  40.0418 0001098  82.0765 278.0355 15.15822353 69115,6896.62,94.998,519.242,517.728,0.0
52556.0,STARLINK-3763,PAYLOAD,2023-08-09 15:09:26,15.15773612,9.79e-05,53.2167,36.4493,89.9291,270.1817,-0.00034802,-7.022e-05,0.0,0 STARLINK-3763,1 52556U 22051Z   23221.63155814 -.00007022  00000-0 -34802-3 0  9999,2 52556  53.2167  36.4493 0000979  89.9291 270.1817 15.15773612 69235,6896.768,95.001,519.308,517.958,0.0
52556.0,STARLINK-3763,PAYLOAD,2023-08-09 19:54:17,15.15780062,0.0002133,53.2181,35.5519,113.0296,247.0925,-0.00042051,-8.422e-05,0.0,0 STARLINK-3763,1 52556U 22051Z   23221.82936787 -.00008422  00000-0 -42051-3 0  9996,2 52556  53.2181  35.5519 0002133 113.0296 247.0925 15.15780062 69261,6896.748,95.001,520.084,517.142,0.0
52556.0,STARLINK-3763,PAYLOAD,2023-08-10 18:03:35,15.15749966,0.0001027,53.2185,31.3635,87.8067,272.3045,-9.8097e-05,-2.201e-05,0.0,0 STARLINK-3763,1 52556U 22051Z   23222.75249681 -.00002201  00000-0 -98097-4 0  9990,2 52556  53.2185  31.3635 0001027  87.8067 272.3045 15.15749966 69401,6896.84,95.002,519.413,517.996,0.0
52556.0,STARLINK-3763,PAYLOAD,2023-08-11 17:47:52,15.15734463,0.0001033,53.2181,26.876,83.1718,276.9395,2.8324e-05,2.38e-06,0.0,0 STARLINK-3763,1 52556U 22051Z   23223.74157418  .00000238  00000-0  28324-4 0  9998,2 52556  53.2181  26.8760 0001033  83.1718 276.9395 15.15734463 69554,6896.887,95.003,519.464,518.039,0.0
